KUIPER-00157            
1 65970U 25228Z   25343.86008118  .00043764  00000+0  12409-2 0  9996
2 65970  51.8808  34.5078 0007644  18.1334 341.9923 15.35781882  9971
